ONEWEB-0142             
1 47288U 20100AG  23271.83253190  .00000411  00000+0  11075-2 0  9999
2 47288  87.8941 187.9432 0001699  72.6417 287.4898 13.12444946134501
ONEWEB-0143             
1 47289U 20100AH  23271.78699489 -.00000199  00000+0 -58852-3 0  9999
2 47289  87.9070 187.9608 0001904  76.4528 283.6812 13.12440852134477
ONEWEB-0144             
1 47290U 20100AJ  23271.83568813  .00000489  00000+0  13247-2 0  9991
2 47290  87.9005 187.9442 0001735  61.9894 298.1410 13.12442691134401
ONEWEB-0145             
1 47291U 20100AK  23271.80603692 -.00000338  00000+0 -97410-3 0  9994
2 47291  87.9071 187.9636 0001801  72.0991 288.0333 13.12444181134593
ONEWEB-0146             
1 47292U 20100AL  23271.80179968 -.00000366  00000+0 -10528-2 0  9994
2 47292  87.9082 187.9975 0002198  85.8200 274.3180 13.12443237134507
ONEWEB-0147             
1 47293U 20100AM  23271.84627840  .00000429  00000+0  11560-2 0  9991
2 47293  87.9072 187.9407 0002129  61.4728 298.6615 13.12442871134400
ONEWEB-0115             
1 48042U 21025A   23271.73370161  .00000297  00000+0  77838-3 0  9994
2 48042  87.9060 157.7053 0002539  79.1186 281.0228 13.13468575123315
ONEWEB-0152             
1 48043U 21025B   23271.74641026  .00000345  00000+0  91055-3 0  9998
2 48043  87.9066 157.6895 0001848  74.3801 285.7532 13.13471526123272
